{
 "type": "FeatureCollection",
 "properties": {
  "area": "uae-creek",
  "label": "Dubai Creek + Business Bay connector",
  "bbox": [
   55.28,
   25.2,
   55.36,
   25.28
  ],
  "authored_by": "grok/author_uae_channel_graphs",
  "version": "v1"
 },
 "features": [
  {
   "type": "Feature",
   "geometry": {
    "type": "LineString",
    "coordinates": [
     [
      55.3,
      25.265
     ],
     [
      55.31,
      25.258
     ],
     [
      55.32,
      25.252
     ],
     [
      55.33,
      25.248
     ]
    ]
   },
   "properties": {
    "id": "uae-creek__creek_mouth",
    "area": "uae-creek",
    "segment": "creek_mouth",
    "label": "Dubai Creek + Business Bay connector",
    "authored_by": "grok/author_uae_channel_graphs",
    "version": "v1"
   }
  },
  {
   "type": "Feature",
   "geometry": {
    "type": "LineString",
    "coordinates": [
     [
      55.33,
      25.248
     ],
     [
      55.338,
      25.242
     ],
     [
      55.345,
      25.236
     ]
    ]
   },
   "properties": {
    "id": "uae-creek__creek_upper",
    "area": "uae-creek",
    "segment": "creek_upper",
    "label": "Dubai Creek + Business Bay connector",
    "authored_by": "grok/author_uae_channel_graphs",
    "version": "v1"
   }
  },
  {
   "type": "Feature",
   "geometry": {
    "type": "LineString",
    "coordinates": [
     [
      55.345,
      25.236
     ],
     [
      55.352,
      25.228
     ],
     [
      55.358,
      25.22
     ]
    ]
   },
   "properties": {
    "id": "uae-creek__business_bay",
    "area": "uae-creek",
    "segment": "business_bay",
    "label": "Dubai Creek + Business Bay connector",
    "authored_by": "grok/author_uae_channel_graphs",
    "version": "v1"
   }
  },
  {
   "type": "Feature",
   "geometry": {
    "type": "LineString",
    "coordinates": [
     [
      55.32,
      25.252
     ],
     [
      55.328,
      25.245
     ],
     [
      55.335,
      25.238
     ]
    ]
   },
   "properties": {
    "id": "uae-creek__festival_city_apron",
    "area": "uae-creek",
    "segment": "festival_city_apron",
    "label": "Dubai Creek + Business Bay connector",
    "authored_by": "grok/author_uae_channel_graphs",
    "version": "v1"
   }
  }
 ]
}
