{
 "type": "FeatureCollection",
 "properties": {
  "area": "uae-palm",
  "label": "Palm Jumeirah trunk + frond channels",
  "bbox": [
   55.1,
   25.08,
   55.17,
   25.15
  ],
  "authored_by": "grok/author_uae_channel_graphs",
  "version": "v2"
 },
 "features": [
  {
   "type": "Feature",
   "geometry": {
    "type": "LineString",
    "coordinates": [
     [
      55.1412,
      25.084
     ],
     [
      55.1414,
      25.098
     ],
     [
      55.1415,
      25.112
     ],
     [
      55.1416,
      25.124
     ],
     [
      55.141,
      25.136
     ]
    ]
   },
   "properties": {
    "id": "uae-palm__trunk_spine",
    "area": "uae-palm",
    "segment": "trunk_spine",
    "label": "Palm Jumeirah trunk + frond channels",
    "authored_by": "grok/author_uae_channel_graphs",
    "version": "v2"
   }
  },
  {
   "type": "Feature",
   "geometry": {
    "type": "LineString",
    "coordinates": [
     [
      55.1412,
      25.105
     ],
     [
      55.128,
      25.1
     ],
     [
      55.118,
      25.098
     ],
     [
      55.11,
      25.106
     ]
    ]
   },
   "properties": {
    "id": "uae-palm__west_frond_W",
    "area": "uae-palm",
    "segment": "west_frond_W",
    "label": "Palm Jumeirah trunk + frond channels",
    "authored_by": "grok/author_uae_channel_graphs",
    "version": "v2"
   }
  },
  {
   "type": "Feature",
   "geometry": {
    "type": "LineString",
    "coordinates": [
     [
      55.1412,
      25.108
     ],
     [
      55.125,
      25.104
     ],
     [
      55.115,
      25.1
     ]
    ]
   },
   "properties": {
    "id": "uae-palm__west_frond_M",
    "area": "uae-palm",
    "segment": "west_frond_M",
    "label": "Palm Jumeirah trunk + frond channels",
    "authored_by": "grok/author_uae_channel_graphs",
    "version": "v2"
   }
  },
  {
   "type": "Feature",
   "geometry": {
    "type": "LineString",
    "coordinates": [
     [
      55.1415,
      25.102
     ],
     [
      55.148,
      25.104
     ],
     [
      55.152,
      25.11
     ]
    ]
   },
   "properties": {
    "id": "uae-palm__east_frond_FIVE",
    "area": "uae-palm",
    "segment": "east_frond_FIVE",
    "label": "Palm Jumeirah trunk + frond channels",
    "authored_by": "grok/author_uae_channel_graphs",
    "version": "v2"
   }
  },
  {
   "type": "Feature",
   "geometry": {
    "type": "LineString",
    "coordinates": [
     [
      55.1415,
      25.115
     ],
     [
      55.15,
      25.118
     ],
     [
      55.153,
      25.126
     ]
    ]
   },
   "properties": {
    "id": "uae-palm__east_frond_RIXOS",
    "area": "uae-palm",
    "segment": "east_frond_RIXOS",
    "label": "Palm Jumeirah trunk + frond channels",
    "authored_by": "grok/author_uae_channel_graphs",
    "version": "v2"
   }
  },
  {
   "type": "Feature",
   "geometry": {
    "type": "LineString",
    "coordinates": [
     [
      55.152,
      25.108
     ],
     [
      55.158,
      25.114
     ],
     [
      55.16,
      25.122
     ],
     [
      55.155,
      25.13
     ]
    ]
   },
   "properties": {
    "id": "uae-palm__crescent_arc",
    "area": "uae-palm",
    "segment": "crescent_arc",
    "label": "Palm Jumeirah trunk + frond channels",
    "authored_by": "grok/author_uae_channel_graphs",
    "version": "v2"
   }
  }
 ]
}
