{
 "type": "FeatureCollection",
 "properties": {
  "area": "uae-marina",
  "label": "Dubai Marina / JBR / Harbour basin",
  "bbox": [
   55.12,
   25.06,
   55.16,
   25.11
  ],
  "authored_by": "grok/author_uae_channel_graphs",
  "version": "v1"
 },
 "features": [
  {
   "type": "Feature",
   "geometry": {
    "type": "LineString",
    "coordinates": [
     [
      55.138,
      25.068
     ],
     [
      55.14,
      25.074
     ],
     [
      55.142,
      25.08
     ],
     [
      55.144,
      25.086
     ],
     [
      55.146,
      25.092
     ]
    ]
   },
   "properties": {
    "id": "uae-marina__marina_channel",
    "area": "uae-marina",
    "segment": "marina_channel",
    "label": "Dubai Marina / JBR / Harbour basin",
    "authored_by": "grok/author_uae_channel_graphs",
    "version": "v1"
   }
  },
  {
   "type": "Feature",
   "geometry": {
    "type": "LineString",
    "coordinates": [
     [
      55.146,
      25.078
     ],
     [
      55.15,
      25.082
     ],
     [
      55.154,
      25.088
     ]
    ]
   },
   "properties": {
    "id": "uae-marina__jbr_offshore",
    "area": "uae-marina",
    "segment": "jbr_offshore",
    "label": "Dubai Marina / JBR / Harbour basin",
    "authored_by": "grok/author_uae_channel_graphs",
    "version": "v1"
   }
  },
  {
   "type": "Feature",
   "geometry": {
    "type": "LineString",
    "coordinates": [
     [
      55.154,
      25.088
     ],
     [
      55.152,
      25.094
     ],
     [
      55.148,
      25.098
     ],
     [
      55.142,
      25.1
     ]
    ]
   },
   "properties": {
    "id": "uae-marina__harbour_approach",
    "area": "uae-marina",
    "segment": "harbour_approach",
    "label": "Dubai Marina / JBR / Harbour basin",
    "authored_by": "grok/author_uae_channel_graphs",
    "version": "v1"
   }
  },
  {
   "type": "Feature",
   "geometry": {
    "type": "LineString",
    "coordinates": [
     [
      55.146,
      25.092
     ],
     [
      55.148,
      25.096
     ],
     [
      55.15,
      25.1
     ]
    ]
   },
   "properties": {
    "id": "uae-marina__bluewaters_link",
    "area": "uae-marina",
    "segment": "bluewaters_link",
    "label": "Dubai Marina / JBR / Harbour basin",
    "authored_by": "grok/author_uae_channel_graphs",
    "version": "v1"
   }
  }
 ]
}
