{
 "type": "FeatureCollection",
 "properties": {
  "area": "uae-deira",
  "label": "Deira Islands / Palm Deira apron channels",
  "bbox": [
   55.3,
   25.28,
   55.38,
   25.36
  ],
  "authored_by": "grok/author_uae_channel_graphs",
  "version": "v2"
 },
 "features": [
  {
   "type": "Feature",
   "geometry": {
    "type": "LineString",
    "coordinates": [
     [
      55.32,
      25.285
     ],
     [
      55.33,
      25.295
     ],
     [
      55.34,
      25.305
     ],
     [
      55.35,
      25.315
     ]
    ]
   },
   "properties": {
    "id": "uae-deira__deira_coast_apron",
    "area": "uae-deira",
    "segment": "deira_coast_apron",
    "label": "Deira Islands / Palm Deira apron channels",
    "authored_by": "grok/author_uae_channel_graphs",
    "version": "v2"
   }
  },
  {
   "type": "Feature",
   "geometry": {
    "type": "LineString",
    "coordinates": [
     [
      55.35,
      25.315
     ],
     [
      55.355,
      25.325
     ],
     [
      55.36,
      25.335
     ],
     [
      55.365,
      25.345
     ]
    ]
   },
   "properties": {
    "id": "uae-deira__palm_deira_spine",
    "area": "uae-deira",
    "segment": "palm_deira_spine",
    "label": "Deira Islands / Palm Deira apron channels",
    "authored_by": "grok/author_uae_channel_graphs",
    "version": "v2"
   }
  },
  {
   "type": "Feature",
   "geometry": {
    "type": "LineString",
    "coordinates": [
     [
      55.32,
      25.285
     ],
     [
      55.31,
      25.278
     ],
     [
      55.3,
      25.27
     ]
    ]
   },
   "properties": {
    "id": "uae-deira__deira_creek_mouth",
    "area": "uae-deira",
    "segment": "deira_creek_mouth",
    "label": "Deira Islands / Palm Deira apron channels",
    "authored_by": "grok/author_uae_channel_graphs",
    "version": "v2"
   }
  },
  {
   "type": "Feature",
   "geometry": {
    "type": "LineString",
    "coordinates": [
     [
      55.34,
      25.305
     ],
     [
      55.332,
      25.312
     ],
     [
      55.325,
      25.32
     ]
    ]
   },
   "properties": {
    "id": "uae-deira__island_ring_W",
    "area": "uae-deira",
    "segment": "island_ring_W",
    "label": "Deira Islands / Palm Deira apron channels",
    "authored_by": "grok/author_uae_channel_graphs",
    "version": "v2"
   }
  },
  {
   "type": "Feature",
   "geometry": {
    "type": "LineString",
    "coordinates": [
     [
      55.35,
      25.315
     ],
     [
      55.358,
      25.322
     ],
     [
      55.365,
      25.33
     ]
    ]
   },
   "properties": {
    "id": "uae-deira__island_ring_E",
    "area": "uae-deira",
    "segment": "island_ring_E",
    "label": "Deira Islands / Palm Deira apron channels",
    "authored_by": "grok/author_uae_channel_graphs",
    "version": "v2"
   }
  }
 ]
}
