{
 "type": "FeatureCollection",
 "properties": {
  "area": "uae-abudhabi",
  "label": "Abu Dhabi islands \u2014 Yas / Saadiyat / Lulu / Reem / Hudayriyat",
  "bbox": [
   54.28,
   24.38,
   54.68,
   24.58
  ],
  "authored_by": "grok/author_uae_channel_graphs",
  "version": "v2"
 },
 "features": [
  {
   "type": "Feature",
   "geometry": {
    "type": "LineString",
    "coordinates": [
     [
      54.606,
      24.481
     ],
     [
      54.58,
      24.5
     ],
     [
      54.55,
      24.52
     ],
     [
      54.52,
      24.535
     ],
     [
      54.49,
      24.545
     ]
    ]
   },
   "properties": {
    "id": "uae-abudhabi__yas_saadiyat",
    "area": "uae-abudhabi",
    "segment": "yas_saadiyat",
    "label": "Abu Dhabi islands \u2014 Yas / Saadiyat / Lulu / Reem / Hudayriyat",
    "authored_by": "grok/author_uae_channel_graphs",
    "version": "v2"
   }
  },
  {
   "type": "Feature",
   "geometry": {
    "type": "LineString",
    "coordinates": [
     [
      54.49,
      24.545
     ],
     [
      54.45,
      24.53
     ],
     [
      54.41,
      24.51
     ],
     [
      54.37,
      24.495
     ],
     [
      54.341,
      24.501
     ]
    ]
   },
   "properties": {
    "id": "uae-abudhabi__saadiyat_lulu",
    "area": "uae-abudhabi",
    "segment": "saadiyat_lulu",
    "label": "Abu Dhabi islands \u2014 Yas / Saadiyat / Lulu / Reem / Hudayriyat",
    "authored_by": "grok/author_uae_channel_graphs",
    "version": "v2"
   }
  },
  {
   "type": "Feature",
   "geometry": {
    "type": "LineString",
    "coordinates": [
     [
      54.341,
      24.501
     ],
     [
      54.36,
      24.495
     ],
     [
      54.39,
      24.492
     ],
     [
      54.403,
      24.492
     ]
    ]
   },
   "properties": {
    "id": "uae-abudhabi__lulu_reem",
    "area": "uae-abudhabi",
    "segment": "lulu_reem",
    "label": "Abu Dhabi islands \u2014 Yas / Saadiyat / Lulu / Reem / Hudayriyat",
    "authored_by": "grok/author_uae_channel_graphs",
    "version": "v2"
   }
  },
  {
   "type": "Feature",
   "geometry": {
    "type": "LineString",
    "coordinates": [
     [
      54.403,
      24.492
     ],
     [
      54.38,
      24.47
     ],
     [
      54.35,
      24.44
     ],
     [
      54.32,
      24.42
     ],
     [
      54.3,
      24.405
     ]
    ]
   },
   "properties": {
    "id": "uae-abudhabi__reem_hudayriyat",
    "area": "uae-abudhabi",
    "segment": "reem_hudayriyat",
    "label": "Abu Dhabi islands \u2014 Yas / Saadiyat / Lulu / Reem / Hudayriyat",
    "authored_by": "grok/author_uae_channel_graphs",
    "version": "v2"
   }
  },
  {
   "type": "Feature",
   "geometry": {
    "type": "LineString",
    "coordinates": [
     [
      54.606,
      24.481
     ],
     [
      54.62,
      24.47
     ],
     [
      54.63,
      24.46
     ]
    ]
   },
   "properties": {
    "id": "uae-abudhabi__yas_marina_apron",
    "area": "uae-abudhabi",
    "segment": "yas_marina_apron",
    "label": "Abu Dhabi islands \u2014 Yas / Saadiyat / Lulu / Reem / Hudayriyat",
    "authored_by": "grok/author_uae_channel_graphs",
    "version": "v2"
   }
  }
 ]
}
